LEMUR-2-ROUNDTRIPPER    
1 62711U 25009DG  26168.95878053  .00007247  00000+0  53141-3 0  9997
2 62711  97.7255 251.6369 0005445 128.2572 231.9144 15.03803585 77748
LEMUR-2-MYNAMEISJEFF    
1 62712U 25009DH  26168.89064662  .00006867  00000+0  50378-3 0  9990
2 62712  97.7302 251.9503 0003664 149.2779 210.8662 15.03808505 77735
LEMUR-2-LEIA-PHILIP     
1 63246U 25052AN  26168.67114041  .00000646  00000+0  60623-4 0  9998
2 63246  97.6839  60.6142 0002607 208.3934 151.7147 14.97320431 68743
LEMUR-2-LIA-MARTIN      
1 63248U 25052AQ  26168.94326558  .00002886  00000+0  25056-3 0  9996
2 63248  97.6891  61.3581 0002949 155.6525 204.4837 14.97808124 68794
LEMUR-2-DELOITTE-1      
1 63259U 25052BB  26168.65249897  .00003792  00000+0  32930-3 0  9992
2 63259  97.6921  61.3999 0003428  96.1635 263.9978 14.97607945 68768
LEMUR-2-EMERSONROSE     
1 63261U 25052BD  26168.62721272  .00002900  00000+0  24365-3 0  9997
2 63261  97.6883  61.9349 0001749  68.0009 292.1400 14.99081964 68808
LEMUR-2-MARACHE-FRAN    
1 63262U 25052BE  26168.93575699  .00004264  00000+0  34656-3 0  9991
2 63262  97.6939  62.5574 0005292  20.2899 339.8534 15.00108576 68878
LEMUR-2-THEFALCONER     
1 63264U 25052BG  26168.94623675  .00002404  00000+0  21180-3 0  9994
2 63264  97.6858  61.3093 0002555  31.4057 328.7317 14.97392645 68808
LEMUR-2-UNTITLED-SC     
1 63351U 25061A   26168.88207796  .00003445  00000+0  19566-3 0  9997
2 63351  97.5636 144.2387 0016933 261.8675  98.0635 15.13481060 67690
LEMUR-2-ESPERANZA       
1 63352U 25061B   26168.85916976  .00002961  00000+0  16828-3 0  9992
2 63352  97.5646 144.3097 0016487 261.2519  98.6845 15.13574955 67691
LEMUR-2-KREMPEL-BRO2    
1 63353U 25061C   26168.88595354  .00003571  00000+0  19970-3 0  9998
2 63353  97.5690 144.8703 0017533 252.9012 107.0299 15.14010563 67710
LEMUR-2-THERMORAPTOR    
1 63354U 25061D   26168.86798440  .00003485  00000+0  19453-3 0  9998
2 63354  97.5697 144.9284 0017208 251.6410 108.2950 15.14091452 67713
LEMUR-2-NEUROSPICY      
1 63355U 25061E   26168.83960602  .00002985  00000+0  16678-3 0  9997
2 63355  97.5624 144.5258 0015038 255.6546 104.3016 15.14205403 67717
LEMUR-2-TILLINFINITY    
1 63356U 25061F   26168.87461825  .00003671  00000+0  20081-3 0  9991
2 63356  97.5607 144.8515 0016396 242.2346 117.7224 15.14792061 67749
LEMUR-2-KREMPEL-BRO1    
1 63357U 25061G   26168.91424229  .00002752  00000+0  15224-3 0  9996
2 63357  97.5610 144.8068 0016996 243.6680 116.2807 15.14596994 67747
LEMUR-2-LANGER2SPACE    
1 63358U 25061H   26168.87481459  .00003664  00000+0  20336-3 0  9993
2 63358  97.5615 144.5814 0014963 253.6681 106.2905 15.14294185 67726
LEMUR-2-BALTO           
1 63395U 25052BH  26168.65363744  .00004934  00000+0  40031-3 0  9991
2 63395  97.6897  62.2564 0006905  56.5220 303.6663 15.00091660 68839
LEMUR-2-KRISH           
1 64561U 25135AK  26168.87687600  .00004496  00000+0  40377-3 0  9999
2 64561  97.7756 283.7481 0001754  98.5776 261.5644 14.96215808 54020
LEMUR-2-HUBBLE-4        
1 64565U 25135AP  26168.87350895  .00001375  00000+0  13706-3 0  9995
2 64565  97.7701 282.7710 0000934 302.5543  57.5586 14.93200010 53974
LEMUR-2-SEJONG-2        
1 64586U 25135BL  26168.90662389  .00003322  00000+0  29596-3 0  9994
2 64586  97.7688 283.9223 0003778 335.7365  24.3677 14.96700809 54059
LEMUR-2-HUBBLE-5        
1 64840U 25135BT  26168.82714361  .00000921  00000+0  91420-4 0  9994
2 64840  97.7720 283.3603 0005043 351.7401   8.3735 14.94137476 54005
LEMUR-2-KARENDARRELL    
1 64841U 25135BU  26168.91861656  .00006517  00000+0  52662-3 0  9996
2 64841  97.7684 285.1251 0009734 199.1946 160.8912 15.00119646 54124
LEMUR-2-LUCILLE-ROSE    
1 65403U 25135BV  26168.89230268  .00005432  00000+0  43923-3 0  9992
2 65403  97.7766 285.1194 0011254 280.4634  79.5321 15.00162009 48746
LEMUR-2-AFFIE-WAUWIE    
1 66295U 25248C   26167.13988088  .00013448  00000+0  50637-3 0  9999
2 66295  45.3895 120.6606 0007520  77.2231 282.9498 15.27115158 34433
LEMUR-2-DEANANDMAEVE    
1 66678U 25276N   26168.77557701  .00005118  00000+0  24251-3 0  9998
2 66678  97.4209 242.2414 0005656  12.7375 347.4002 15.19739115 30502
LEMUR-2-STAS-GORBUK     
1 66686U 25276W   26168.79021789  .00004418  00000+0  21197-3 0  9999
2 66686  97.4244 242.3109 0005023  13.5720 346.5649 15.19387090 30501
LEMUR-2-TEODOR          
1 66768U 25276DG  26168.77334051  .00004536  00000+0  20733-3 0  9993
2 66768  97.4151 242.5312 0002148 116.3493 243.7963 15.21055353 30538
LEMUR-2-LAILA           
1 66776U 25276DQ  26168.74717145  .00005055  00000+0  22920-3 0  9995
2 66776  97.4173 242.6265 0002260 135.0689 225.0730 15.21277167 30533
LEMUR-2-CELIJO-SB-PK    
1 66781U 25276DW  26168.77037197  .00004928  00000+0  40074-3 0  9994
2 66781  97.5250 239.5293 0008730 131.4945 228.7030 14.99982019 22712
